<?xml version="1.0" encoding="UTF-8"?>
<ndm xmlns:xsi="http://www.w3.org/2001/XMLSchema-instance" xsi:noNamespaceSchemaLocation="https://sanaregistry.org/r/ndmxml_unqualified/ndmxml-2.0.0-master-2.0.xsd">
<omm id="CCSDS_OMM_VERS" version="2.0">
<header><CREATION_DATE/><ORIGINATOR/></header><body><segment><metadata><OBJECT_NAME>KUIPER-00124</OBJECT_NAME><OBJECT_ID>2025-228G</OBJECT_ID><CENTER_NAME>EARTH</CENTER_NAME><REF_FRAME>TEME</REF_FRAME><TIME_SYSTEM>UTC</TIME_SYSTEM><MEAN_ELEMENT_THEORY>SGP4</MEAN_ELEMENT_THEORY></metadata><data><meanElements><EPOCH>2025-12-28T12:00:02.000160</EPOCH><MEAN_MOTION>14.82913037</MEAN_MOTION><ECCENTRICITY>.0001049</ECCENTRICITY><INCLINATION>51.8989</INCLINATION><RA_OF_ASC_NODE>310.4574</RA_OF_ASC_NODE><ARG_OF_PERICENTER>176.8382</ARG_OF_PERICENTER><MEAN_ANOMALY>20.1662</MEAN_ANOMALY></meanElements><tleParameters><EPHEMERIS_TYPE>0</EPHEMERIS_TYPE><CLASSIFICATION_TYPE>U</CLASSIFICATION_TYPE><NORAD_CAT_ID>65953</NORAD_CAT_ID><ELEMENT_SET_NO>999</ELEMENT_SET_NO><REV_AT_EPOCH>584</REV_AT_EPOCH><BSTAR>-.47326E-2</BSTAR><MEAN_MOTION_DOT>-.38755E-3</MEAN_MOTION_DOT><MEAN_MOTION_DDOT>0</MEAN_MOTION_DDOT></tleParameters></data></segment></body></omm>
<omm id="CCSDS_OMM_VERS" version="2.0">
<header><CREATION_DATE/><ORIGINATOR/></header><body><segment><metadata><OBJECT_NAME>KUIPER-00125</OBJECT_NAME><OBJECT_ID>2025-228H</OBJECT_ID><CENTER_NAME>EARTH</CENTER_NAME><REF_FRAME>TEME</REF_FRAME><TIME_SYSTEM>UTC</TIME_SYSTEM><MEAN_ELEMENT_THEORY>SGP4</MEAN_ELEMENT_THEORY></metadata><data><meanElements><EPOCH>2025-12-28T05:59:50.509824</EPOCH><MEAN_MOTION>15.39094455</MEAN_MOTION><ECCENTRICITY>.0013085</ECCENTRICITY><INCLINATION>51.8801</INCLINATION><RA_OF_ASC_NODE>305.5096</RA_OF_ASC_NODE><ARG_OF_PERICENTER>21.3636</ARG_OF_PERICENTER><MEAN_ANOMALY>338.7895</MEAN_ANOMALY></meanElements><tleParameters><EPHEMERIS_TYPE>0</EPHEMERIS_TYPE><CLASSIFICATION_TYPE>U</CLASSIFICATION_TYPE><NORAD_CAT_ID>65954</NORAD_CAT_ID><ELEMENT_SET_NO>999</ELEMENT_SET_NO><REV_AT_EPOCH>1280</REV_AT_EPOCH><BSTAR>.40124E-1</BSTAR><MEAN_MOTION_DOT>.1751148E-1</MEAN_MOTION_DOT><MEAN_MOTION_DDOT>0</MEAN_MOTION_DDOT></tleParameters></data></segment></body></omm>
<omm id="CCSDS_OMM_VERS" version="2.0">
<header><CREATION_DATE/><ORIGINATOR/></header><body><segment><metadata><OBJECT_NAME>KUIPER-00126</OBJECT_NAME><OBJECT_ID>2025-228J</OBJECT_ID><CENTER_NAME>EARTH</CENTER_NAME><REF_FRAME>TEME</REF_FRAME><TIME_SYSTEM>UTC</TIME_SYSTEM><MEAN_ELEMENT_THEORY>SGP4</MEAN_ELEMENT_THEORY></metadata><data><meanElements><EPOCH>2025-12-28T12:00:02.000160</EPOCH><MEAN_MOTION>14.80420352</MEAN_MOTION><ECCENTRICITY>.0001037</ECCENTRICITY><INCLINATION>51.8993</INCLINATION><RA_OF_ASC_NODE>315.4152</RA_OF_ASC_NODE><ARG_OF_PERICENTER>77.0653</ARG_OF_PERICENTER><MEAN_ANOMALY>1.1108</MEAN_ANOMALY></meanElements><tleParameters><EPHEMERIS_TYPE>0</EPHEMERIS_TYPE><CLASSIFICATION_TYPE>U</CLASSIFICATION_TYPE><NORAD_CAT_ID>65955</NORAD_CAT_ID><ELEMENT_SET_NO>999</ELEMENT_SET_NO><REV_AT_EPOCH>340</REV_AT_EPOCH><BSTAR>-.46109E-2</BSTAR><MEAN_MOTION_DOT>-.35595E-3</MEAN_MOTION_DOT><MEAN_MOTION_DDOT>0</MEAN_MOTION_DDOT></tleParameters></data></segment></body></omm>
<omm id="CCSDS_OMM_VERS" version="2.0">
<header><CREATION_DATE/><ORIGINATOR/></header><body><segment><metadata><OBJECT_NAME>KUIPER-00127</OBJECT_NAME><OBJECT_ID>2025-228K</OBJECT_ID><CENTER_NAME>EARTH</CENTER_NAME><REF_FRAME>TEME</REF_FRAME><TIME_SYSTEM>UTC</TIME_SYSTEM><MEAN_ELEMENT_THEORY>SGP4</MEAN_ELEMENT_THEORY></metadata><data><meanElements><EPOCH>2025-12-28T03:25:22.796544</EPOCH><MEAN_MOTION>14.97855347</MEAN_MOTION><ECCENTRICITY>.00058858</ECCENTRICITY><INCLINATION>51.8964</INCLINATION><RA_OF_ASC_NODE>313.6552</RA_OF_ASC_NODE><ARG_OF_PERICENTER>111.3859</ARG_OF_PERICENTER><MEAN_ANOMALY>248.7740</MEAN_ANOMALY></meanElements><tleParameters><EPHEMERIS_TYPE>0</EPHEMERIS_TYPE><CLASSIFICATION_TYPE>U</CLASSIFICATION_TYPE><NORAD_CAT_ID>65956</NORAD_CAT_ID><ELEMENT_SET_NO>999</ELEMENT_SET_NO><REV_AT_EPOCH>1268</REV_AT_EPOCH><BSTAR>.13404743E-2</BSTAR><MEAN_MOTION_DOT>.15719E-3</MEAN_MOTION_DOT><MEAN_MOTION_DDOT>0</MEAN_MOTION_DDOT></tleParameters></data></segment></body></omm>
<omm id="CCSDS_OMM_VERS" version="2.0">
<header><CREATION_DATE/><ORIGINATOR/></header><body><segment><metadata><OBJECT_NAME>KUIPER-00128</OBJECT_NAME><OBJECT_ID>2025-228L</OBJECT_ID><CENTER_NAME>EARTH</CENTER_NAME><REF_FRAME>TEME</REF_FRAME><TIME_SYSTEM>UTC</TIME_SYSTEM><MEAN_ELEMENT_THEORY>SGP4</MEAN_ELEMENT_THEORY></metadata><data><meanElements><EPOCH>2025-12-28T12:00:02.000160</EPOCH><MEAN_MOTION>14.94764544</MEAN_MOTION><ECCENTRICITY>.0003668</ECCENTRICITY><INCLINATION>51.9007</INCLINATION><RA_OF_ASC_NODE>308.6537</RA_OF_ASC_NODE><ARG_OF_PERICENTER>103.5408</ARG_OF_PERICENTER><MEAN_ANOMALY>119.4985</MEAN_ANOMALY></meanElements><tleParameters><EPHEMERIS_TYPE>0</EPHEMERIS_TYPE><CLASSIFICATION_TYPE>U</CLASSIFICATION_TYPE><NORAD_CAT_ID>65957</NORAD_CAT_ID><ELEMENT_SET_NO>999</ELEMENT_SET_NO><REV_AT_EPOCH>429</REV_AT_EPOCH><BSTAR>-.73959E-1</BSTAR><MEAN_MOTION_DOT>-.760437E-2</MEAN_MOTION_DOT><MEAN_MOTION_DDOT>0</MEAN_MOTION_DDOT></tleParameters></data></segment></body></omm>
<omm id="CCSDS_OMM_VERS" version="2.0">
<header><CREATION_DATE/><ORIGINATOR/></header><body><segment><metadata><OBJECT_NAME>KUIPER-00129</OBJECT_NAME><OBJECT_ID>2025-228M</OBJECT_ID><CENTER_NAME>EARTH</CENTER_NAME><REF_FRAME>TEME</REF_FRAME><TIME_SYSTEM>UTC</TIME_SYSTEM><MEAN_ELEMENT_THEORY>SGP4</MEAN_ELEMENT_THEORY></metadata><data><meanElements><EPOCH>2025-12-28T12:00:02.000160</EPOCH><MEAN_MOTION>15.13017900</MEAN_MOTION><ECCENTRICITY>.0002639</ECCENTRICITY><INCLINATION>51.8830</INCLINATION><RA_OF_ASC_NODE>305.7191</RA_OF_ASC_NODE><ARG_OF_PERICENTER>52.4653</ARG_OF_PERICENTER><MEAN_ANOMALY>297.9483</MEAN_ANOMALY></meanElements><tleParameters><EPHEMERIS_TYPE>0</EPHEMERIS_TYPE><CLASSIFICATION_TYPE>U</CLASSIFICATION_TYPE><NORAD_CAT_ID>65958</NORAD_CAT_ID><ELEMENT_SET_NO>999</ELEMENT_SET_NO><REV_AT_EPOCH>526</REV_AT_EPOCH><BSTAR>-.10365E-2</BSTAR><MEAN_MOTION_DOT>-.18789E-3</MEAN_MOTION_DOT><MEAN_MOTION_DDOT>0</MEAN_MOTION_DDOT></tleParameters></data></segment></body></omm>
<omm id="CCSDS_OMM_VERS" version="2.0">
<header><CREATION_DATE/><ORIGINATOR/></header><body><segment><metadata><OBJECT_NAME>KUIPER-00130</OBJECT_NAME><OBJECT_ID>2025-228N</OBJECT_ID><CENTER_NAME>EARTH</CENTER_NAME><REF_FRAME>TEME</REF_FRAME><TIME_SYSTEM>UTC</TIME_SYSTEM><MEAN_ELEMENT_THEORY>SGP4</MEAN_ELEMENT_THEORY></metadata><data><meanElements><EPOCH>2025-12-28T12:00:02.000160</EPOCH><MEAN_MOTION>15.04708177</MEAN_MOTION><ECCENTRICITY>.0005745</ECCENTRICITY><INCLINATION>51.9026</INCLINATION><RA_OF_ASC_NODE>306.9687</RA_OF_ASC_NODE><ARG_OF_PERICENTER>93.4543</ARG_OF_PERICENTER><MEAN_ANOMALY>5.6574</MEAN_ANOMALY></meanElements><tleParameters><EPHEMERIS_TYPE>0</EPHEMERIS_TYPE><CLASSIFICATION_TYPE>U</CLASSIFICATION_TYPE><NORAD_CAT_ID>65959</NORAD_CAT_ID><ELEMENT_SET_NO>999</ELEMENT_SET_NO><REV_AT_EPOCH>549</REV_AT_EPOCH><BSTAR>-.61754E-1</BSTAR><MEAN_MOTION_DOT>-.820532E-2</MEAN_MOTION_DOT><MEAN_MOTION_DDOT>0</MEAN_MOTION_DDOT></tleParameters></data></segment></body></omm>
<omm id="CCSDS_OMM_VERS" version="2.0">
<header><CREATION_DATE/><ORIGINATOR/></header><body><segment><metadata><OBJECT_NAME>KUIPER-00134</OBJECT_NAME><OBJECT_ID>2025-228P</OBJECT_ID><CENTER_NAME>EARTH</CENTER_NAME><REF_FRAME>TEME</REF_FRAME><TIME_SYSTEM>UTC</TIME_SYSTEM><MEAN_ELEMENT_THEORY>SGP4</MEAN_ELEMENT_THEORY></metadata><data><meanElements><EPOCH>2025-12-28T06:34:03.658944</EPOCH><MEAN_MOTION>15.36085264</MEAN_MOTION><ECCENTRICITY>.0007674</ECCENTRICITY><INCLINATION>51.8782</INCLINATION><RA_OF_ASC_NODE>305.6617</RA_OF_ASC_NODE><ARG_OF_PERICENTER>73.7511</ARG_OF_PERICENTER><MEAN_ANOMALY>286.4319</MEAN_ANOMALY></meanElements><tleParameters><EPHEMERIS_TYPE>0</EPHEMERIS_TYPE><CLASSIFICATION_TYPE>U</CLASSIFICATION_TYPE><NORAD_CAT_ID>65960</NORAD_CAT_ID><ELEMENT_SET_NO>999</ELEMENT_SET_NO><REV_AT_EPOCH>1280</REV_AT_EPOCH><BSTAR>.14586E-2</BSTAR><MEAN_MOTION_DOT>.52075E-3</MEAN_MOTION_DOT><MEAN_MOTION_DDOT>0</MEAN_MOTION_DDOT></tleParameters></data></segment></body></omm>
<omm id="CCSDS_OMM_VERS" version="2.0">
<header><CREATION_DATE/><ORIGINATOR/></header><body><segment><metadata><OBJECT_NAME>KUIPER-00135</OBJECT_NAME><OBJECT_ID>2025-228Q</OBJECT_ID><CENTER_NAME>EARTH</CENTER_NAME><REF_FRAME>TEME</REF_FRAME><TIME_SYSTEM>UTC</TIME_SYSTEM><MEAN_ELEMENT_THEORY>SGP4</MEAN_ELEMENT_THEORY></metadata><data><meanElements><EPOCH>2025-12-28T12:00:02.000160</EPOCH><MEAN_MOTION>15.04769345</MEAN_MOTION><ECCENTRICITY>.0006443</ECCENTRICITY><INCLINATION>51.9111</INCLINATION><RA_OF_ASC_NODE>307.2872</RA_OF_ASC_NODE><ARG_OF_PERICENTER>85.4656</ARG_OF_PERICENTER><MEAN_ANOMALY>130.3253</MEAN_ANOMALY></meanElements><tleParameters><EPHEMERIS_TYPE>0</EPHEMERIS_TYPE><CLASSIFICATION_TYPE>U</CLASSIFICATION_TYPE><NORAD_CAT_ID>65961</NORAD_CAT_ID><ELEMENT_SET_NO>999</ELEMENT_SET_NO><REV_AT_EPOCH>592</REV_AT_EPOCH><BSTAR>-.18185E-1</BSTAR><MEAN_MOTION_DOT>-.250869E-2</MEAN_MOTION_DOT><MEAN_MOTION_DDOT>0</MEAN_MOTION_DDOT></tleParameters></data></segment></body></omm>

</ndm>
